{"fetched_at":"2026-03-29T02:12:04Z","count":15717,"tles":[{"name":"BEIDOU-3 M16 (C35)","line1":"1 43647U 18078A   26085.86672380 -.00000029  00000+0  00000+0 0  9999","line2":"2 43647  54.1644 302.8718 0008443  34.6278 325.4630  1.86232240 50622","category":"GPS"}]}