{
  "norad_id": 43647,
  "name": "BEIDOU-3 M16",
  "history": [
    {
      "epoch": "2026-03-26T20:48:04.936320",
      "apogee_km": 21551.48878132898,
      "perigee_km": 21504.366600491903,
      "latitude_deg": 10.041040922472032,
      "longitude_deg": -124.09451520000584,
      "semi_major_axis_km": 27906.06469091044,
      "eccentricity": 0.0008443,
      "inclination_deg": 54.1644,
      "raan_deg": 302.8718,
      "arg_perigee_deg": 34.6278,
      "mean_anomaly_deg": 325.463,
      "mean_motion_rev_day": 1.8623224
    }
  ]
}